{"type": "FeatureCollection", "features": [{"type": "Feature", "properties": {"norad_id": 2807, "name": "OPS 7218 (TRANSIT 16)", "group": "nnss", "lat": -18.278486433290237, "lon": 174.4006408443941, "alt_km": 1067.0044078758037, "timestamp": "2025-12-04T09:47:37.789616+00:00", "meta": {"OBJECT_NAME": "OPS 7218 (TRANSIT 16)", "OBJECT_ID": "1967-048A", "EPOCH": "2025-12-04T02:00:07.320384", "MEAN_MOTION": 13.50719782, "ECCENTRICITY": 0.0021506, "INCLINATION": 89.6734, "RA_OF_ASC_NODE": 354.3034, "ARG_OF_PERICENTER": 137.388, "MEAN_ANOMALY": 282.8204, "EPHEMERIS_TYPE": 0, "CLASSIFICATION_TYPE": "U", "NORAD_CAT_ID": 2807, "ELEMENT_SET_NO": 999, "REV_AT_EPOCH": 88159, "BSTAR": 0.0002602, "MEAN_MOTION_DOT": 1.78e-06, "MEAN_MOTION_DDOT": 0}, "tle": {"line1": "1 02807U 67048A   25338.08341806  .00000178  00000+0  26020-3 0  9991", "line2": "2 02807  89.6734 354.3034 0021506 137.3880 282.8204 13.50719782881592"}}, "geometry": {"type": "Point", "coordinates": [174.4006408443941, -18.278486433290237]}}, {"type": "Feature", "properties": {"norad_id": 2965, "name": "OPS 4947 (TRANSIT 17)", "group": "nnss", "lat": -0.22239861002678427, "lon": -154.92618870368392, "alt_km": 1056.2319022598567, "timestamp": "2025-12-04T09:47:37.789639+00:00", "meta": {"OBJECT_NAME": "OPS 4947 (TRANSIT 17)", "OBJECT_ID": "1967-092A", "EPOCH": "2025-12-03T15:45:35.885376", "MEAN_MOTION": 13.53450115, "ECCENTRICITY": 0.00457844, "INCLINATION": 89.2506, "RA_OF_ASC_NODE": 25.128, "ARG_OF_PERICENTER": 261.8094, "MEAN_ANOMALY": 219.8061, "EPHEMERIS_TYPE": 0, "CLASSIFICATION_TYPE": "U", "NORAD_CAT_ID": 2965, "ELEMENT_SET_NO": 999, "REV_AT_EPOCH": 86974, "BSTAR": 0.00024972431, "MEAN_MOTION_DOT": 1.8e-06, "MEAN_MOTION_DDOT": 0}, "tle": {"line1": "1 02965U 67092A   25337.65666534  .00000180  00000+0  24972-3 0  9992", "line2": "2 02965  89.2506  25.1280 0045784 261.8094 219.8061 13.53450115869749"}}, "geometry": {"type": "Point", "coordinates": [-154.92618870368392, -0.22239861002678427]}}, {"type": "Feature", "properties": {"norad_id": 3133, "name": "OPS 7034 (TRANSIT 18)", "group": "nnss", "lat": 26.09034331300567, "lon": -86.39763716724114, "alt_km": 1118.6220750606353, "timestamp": "2025-12-04T09:47:37.789653+00:00", "meta": {"OBJECT_NAME": "OPS 7034 (TRANSIT 18)", "OBJECT_ID": "1968-012A", "EPOCH": "2025-12-03T21:33:02.442816", "MEAN_MOTION": 13.51562734, "ECCENTRICITY": 0.00730348, "INCLINATION": 90.027, "RA_OF_ASC_NODE": 273.6142, "ARG_OF_PERICENTER": 194.8777, "MEAN_ANOMALY": 230.8678, "EPHEMERIS_TYPE": 0, "CLASSIFICATION_TYPE": "U", "NORAD_CAT_ID": 3133, "ELEMENT_SET_NO": 999, "REV_AT_EPOCH": 56799, "BSTAR": 0.00021575464, "MEAN_MOTION_DOT": 1.52e-06, "MEAN_MOTION_DDOT": 0}, "tle": {"line1": "1 03133U 68012A   25337.89794494  .00000152  00000+0  21575-3 0  9991", "line2": "2 03133  90.0270 273.6142 0073034 194.8777 230.8678 13.51562734567992"}}, "geometry": {"type": "Point", "coordinates": [-86.39763716724114, 26.09034331300567]}}, {"type": "Feature", "properties": {"norad_id": 4507, "name": "NNSS 19 (TRANSIT 19)", "group": "nnss", "lat": 6.7180373520117485, "lon": -125.47270777451853, "alt_km": 984.841238428392, "timestamp": "2025-12-04T09:47:37.789664+00:00", "meta": {"OBJECT_NAME": "NNSS 19 (TRANSIT 19)", "OBJECT_ID": "1970-067A", "EPOCH": "2025-12-03T23:05:56.276160", "MEAN_MOTION": 13.51311536, "ECCENTRICITY": 0.0171147, "INCLINATION": 90.0056, "RA_OF_ASC_NODE": 234.5277, "ARG_OF_PERICENTER": 318.9954, "MEAN_ANOMALY": 39.8432, "EPHEMERIS_TYPE": 0, "CLASSIFICATION_TYPE": "U", "NORAD_CAT_ID": 4507, "ELEMENT_SET_NO": 999, "REV_AT_EPOCH": 72103, "BSTAR": 0.00032729, "MEAN_MOTION_DOT": 2.41e-06, "MEAN_MOTION_DDOT": 0}, "tle": {"line1": "1 04507U 70067A   25337.96245690  .00000241  00000+0  32729-3 0  9999", "line2": "2 04507  90.0056 234.5277 0171147 318.9954  39.8432 13.51311536721039"}}, "geometry": {"type": "Point", "coordinates": [-125.47270777451853, 6.7180373520117485]}}, {"type": "Feature", "properties": {"norad_id": 6909, "name": "NNSS 20 (TRANSIT 20)", "group": "nnss", "lat": -17.351311221947423, "lon": 75.22420988125934, "alt_km": 1006.1961679735905, "timestamp": "2025-12-04T09:47:37.789675+00:00", "meta": {"OBJECT_NAME": "NNSS 20 (TRANSIT 20)", "OBJECT_ID": "1973-081A", "EPOCH": "2025-12-03T18:50:37.207968", "MEAN_MOTION": 13.71427987, "ECCENTRICITY": 0.01564724, "INCLINATION": 89.8557, "RA_OF_ASC_NODE": 255.1885, "ARG_OF_PERICENTER": 104.8334, "MEAN_ANOMALY": 257.022, "EPHEMERIS_TYPE": 0, "CLASSIFICATION_TYPE": "U", "NORAD_CAT_ID": 6909, "ELEMENT_SET_NO": 999, "REV_AT_EPOCH": 80238, "BSTAR": 0.00028938661, "MEAN_MOTION_DOT": 2.96e-06, "MEAN_MOTION_DDOT": 0}, "tle": {"line1": "1 06909U 73081A   25337.78515287  .00000296  00000+0  28939-3 0  9996", "line2": "2 06909  89.8557 255.1885 0156472 104.8334 257.0220 13.71427987802388"}}, "geometry": {"type": "Point", "coordinates": [75.22420988125934, -17.351311221947423]}}, {"type": "Feature", "properties": {"norad_id": 10457, "name": "TRANSAT", "group": "nnss", "lat": 81.11235828484621, "lon": 81.14354097122082, "alt_km": 1081.313235241947, "timestamp": "2025-12-04T09:47:37.789686+00:00", "meta": {"OBJECT_NAME": "TRANSAT", "OBJECT_ID": "1977-106A", "EPOCH": "2025-12-03T19:44:22.543296", "MEAN_MOTION": 13.48941362, "ECCENTRICITY": 0.00245874, "INCLINATION": 89.6482, "RA_OF_ASC_NODE": 78.9126, "ARG_OF_PERICENTER": 215.8171, "MEAN_ANOMALY": 263.4628, "EPHEMERIS_TYPE": 0, "CLASSIFICATION_TYPE": "U", "NORAD_CAT_ID": 10457, "ELEMENT_SET_NO": 999, "REV_AT_EPOCH": 36623, "BSTAR": 0.00015959191, "MEAN_MOTION_DOT": 1.1e-06, "MEAN_MOTION_DDOT": 0}, "tle": {"line1": "1 10457U 77106A   25337.82248314  .00000110  00000+0  15959-3 0  9993", "line2": "2 10457  89.6482  78.9126 0024587 215.8171 263.4628 13.48941362366232"}}, "geometry": {"type": "Point", "coordinates": [81.14354097122082, 81.11235828484621]}}, {"type": "Feature", "properties": {"norad_id": 12458, "name": "NOVA 1", "group": "nnss", "lat": 31.343203530546727, "lon": 91.59301394620181, "alt_km": 1171.046411342898, "timestamp": "2025-12-04T09:47:37.789697+00:00", "meta": {"OBJECT_NAME": "NOVA 1", "OBJECT_ID": "1981-044A", "EPOCH": "2025-12-03T21:32:55.161888", "MEAN_MOTION": 13.23276955, "ECCENTRICITY": 0.0015609, "INCLINATION": 89.8522, "RA_OF_ASC_NODE": 91.5102, "ARG_OF_PERICENTER": 125.7622, "MEAN_ANOMALY": 356.6957, "EPHEMERIS_TYPE": 0, "CLASSIFICATION_TYPE": "U", "NORAD_CAT_ID": 12458, "ELEMENT_SET_NO": 999, "REV_AT_EPOCH": 15069, "BSTAR": 0.00016146934, "MEAN_MOTION_DOT": 7.7e-07, "MEAN_MOTION_DDOT": 0}, "tle": {"line1": "1 12458U 81044A   25337.89786067  .00000077  00000+0  16147-3 0  9993", "line2": "2 12458  89.8522  91.5102 0015609 125.7622 356.6957 13.23276955150695"}}, "geometry": {"type": "Point", "coordinates": [91.59301394620181, 31.343203530546727]}}, {"type": "Feature", "properties": {"norad_id": 15362, "name": "NOVA 3", "group": "nnss", "lat": -89.04178594319544, "lon": 87.785017938887, "alt_km": 1178.239313724156, "timestamp": "2025-12-04T09:47:37.789708+00:00", "meta": {"OBJECT_NAME": "NOVA 3", "OBJECT_ID": "1984-110A", "EPOCH": "2025-12-04T02:02:19.787136", "MEAN_MOTION": 13.23042938, "ECCENTRICITY": 0.0031203, "INCLINATION": 90.1225, "RA_OF_ASC_NODE": 80.4327, "ARG_OF_PERICENTER": 356.2569, "MEAN_ANOMALY": 176.9125, "EPHEMERIS_TYPE": 0, "CLASSIFICATION_TYPE": "U", "NORAD_CAT_ID": 15362, "ELEMENT_SET_NO": 999, "REV_AT_EPOCH": 98584, "BSTAR": 0.00012082, "MEAN_MOTION_DOT": 5.9e-07, "MEAN_MOTION_DDOT": 0}, "tle": {"line1": "1 15362U 84110A   25338.08495124  .00000059  00000+0  12082-3 0  9994", "line2": "2 15362  90.1225  80.4327 0031203 356.2569 176.9125 13.23042938985847"}}, "geometry": {"type": "Point", "coordinates": [87.785017938887, -89.04178594319544]}}, {"type": "Feature", "properties": {"norad_id": 15935, "name": "OSCAR 30", "group": "nnss", "lat": -39.474791227853274, "lon": 99.84649646659449, "alt_km": 1235.7688171251111, "timestamp": "2025-12-04T09:47:37.789719+00:00", "meta": {"OBJECT_NAME": "OSCAR 30", "OBJECT_ID": "1985-066A", "EPOCH": "2025-12-03T22:00:57.818304", "MEAN_MOTION": 13.36076089, "ECCENTRICITY": 0.01693469, "INCLINATION": 90.1646, "RA_OF_ASC_NODE": 99.7029, "ARG_OF_PERICENTER": 108.5282, "MEAN_ANOMALY": 14.1575, "EPHEMERIS_TYPE": 0, "CLASSIFICATION_TYPE": "U", "NORAD_CAT_ID": 15935, "ELEMENT_SET_NO": 999, "REV_AT_EPOCH": 96335, "BSTAR": 0.00023899718, "MEAN_MOTION_DOT": 1.43e-06, "MEAN_MOTION_DDOT": 0}, "tle": {"line1": "1 15935U 85066A   25337.91733586  .00000143  00000+0  23900-3 0  9994", "line2": "2 15935  90.1646  99.7029 0169346 108.5282  14.1575 13.36076089963354"}}, "geometry": {"type": "Point", "coordinates": [99.84649646659449, -39.474791227853274]}}, {"type": "Feature", "properties": {"norad_id": 15936, "name": "OSCAR 24", "group": "nnss", "lat": 39.35094451460363, "lon": 92.01133740339127, "alt_km": 1084.5439878067282, "timestamp": "2025-12-04T09:47:37.789729+00:00", "meta": {"OBJECT_NAME": "OSCAR 24", "OBJECT_ID": "1985-066B", "EPOCH": "2025-12-03T19:48:06.613056", "MEAN_MOTION": 13.35933575, "ECCENTRICITY": 0.01703838, "INCLINATION": 90.1787, "RA_OF_ASC_NODE": 92.1477, "ARG_OF_PERICENTER": 115.2258, "MEAN_ANOMALY": 3.8692, "EPHEMERIS_TYPE": 0, "CLASSIFICATION_TYPE": "U", "NORAD_CAT_ID": 15936, "ELEMENT_SET_NO": 999, "REV_AT_EPOCH": 96524, "BSTAR": 0.00014632153, "MEAN_MOTION_DOT": 9.2e-07, "MEAN_MOTION_DDOT": 0}, "tle": {"line1": "1 15936U 85066B   25337.82507654  .00000092  00000+0  14632-3 0  9995", "line2": "2 15936  90.1787  92.1477 0170383 115.2258   3.8692 13.35933575965242"}}, "geometry": {"type": "Point", "coordinates": [92.01133740339127, 39.35094451460363]}}]}